NORAD_CAT_ID,OBJECT_NAME,OBJECT_TYPE,EPOCH,MEAN_MOTION,ECCENTRICITY,INCLINATION,RA_OF_ASC_NODE,ARG_OF_PERICENTER,MEAN_ANOMALY,BSTAR,MEAN_MOTION_DOT,MEAN_MOTION_DDOT,TLE_LINE0,TLE_LINE1,TLE_LINE2,SEMIMAJOR_AXIS,PERIOD,APOGEE,PERIGEE,DECAYED
53937.0,STARLINK-4765,PAYLOAD,2023-04-25 00:44:19,15.0888927,0.0001093,53.216,326.1594,93.3415,266.7702,0.0014527,0.00022939,0.0,0 STARLINK-4765,1 53937U 22119BD  23115.03078054  .00022939  00000-0  14527-2 0  9997,2 53937  53.2160 326.1594 0001093  93.3415 266.7702 15.08889270 33648,6917.73,95.434,540.351,538.839,0.0
53937.0,STARLINK-4765,PAYLOAD,2023-04-26 00:35:10,15.08777437,0.0001147,53.2159,321.6982,138.9762,221.1317,-0.00087965,-0.00014236,0.0,0 STARLINK-4765,1 53937U 22119BD  23116.02442786 -.00014236  00000-0 -87965-3 0  9994,2 53937  53.2159 321.6982 0001147 138.9762 221.1317 15.08777437 33792,6918.072,95.442,540.73,539.143,0.0
53937.0,STARLINK-4765,PAYLOAD,2023-04-26 19:39:48,15.08834225,0.0001042,53.2164,318.1305,151.9866,208.1183,0.00075724,0.00011782,0.0,0 STARLINK-4765,1 53937U 22119BD  23116.81930646  .00011782  00000-0  75724-3 0  9999,2 53937  53.2164 318.1305 0001042 151.9866 208.1183 15.08834225 33911,6917.898,95.438,540.484,539.042,0.0
53937.0,STARLINK-4765,PAYLOAD,2023-04-27 22:41:19,15.08881937,0.0001143,53.216,313.0754,152.6378,207.4675,0.00082913,0.00012947,0.0,0 STARLINK-4765,1 53937U 22119BD  23117.94536900  .00012947  00000-0  82913-3 0  9991,2 53937  53.2160 313.0754 0001143 152.6378 207.4675 15.08881937 33669,6917.752,95.435,540.408,538.827,0.0
53937.0,STARLINK-4765,PAYLOAD,2023-04-28 06:38:15,15.08861423,0.0001003,53.2162,311.5911,73.5307,286.5795,-0.00026676,-4.533e-05,0.0,0 STARLINK-4765,1 53937U 22119BD  23118.27656869 -.00004533  00000-0 -26676-3 0  9993,2 53937  53.2162 311.5911 0001003  73.5307 286.5795 15.08861423 33712,6917.815,95.436,540.374,538.986,0.0
53937.0,STARLINK-4765,PAYLOAD,2023-04-28 19:21:20,15.08843992,7.43e-05,53.2141,309.2099,113.1895,246.9175,0.0001797,2.574e-05,0.0,0 STARLINK-4765,1 53937U 22119BD  23118.80649102  .00002574  00000-0  17970-3 0  9992,2 53937  53.2141 309.2099 0000743 113.1895 246.9175 15.08843992 33794,6917.868,95.437,540.247,539.219,0.0
53937.0,STARLINK-4765,PAYLOAD,2023-04-29 12:50:35,15.08845232,6.52e-05,53.2155,305.9392,100.8791,259.2275,0.00047919,7.348e-05,0.0,0 STARLINK-4765,1 53937U 22119BD  23119.53513173  .00007348  00000-0  47919-3 0  9991,2 53937  53.2155 305.9392 0000652 100.8791 259.2275 15.08845232 34322,6917.864,95.437,540.18,539.278,0.0
53937.0,STARLINK-4765,PAYLOAD,2023-04-29 22:22:53,15.08855106,6.63e-05,53.2156,304.1547,101.6513,258.4553,0.00054823,8.452e-05,0.0,0 STARLINK-4765,1 53937U 22119BD  23119.93256731  .00008452  00000-0  54823-3 0  9998,2 53937  53.2156 304.1547 0000663 101.6513 258.4553 15.08855106 33969,6917.834,95.437,540.158,539.241,0.0
53937.0,STARLINK-4765,PAYLOAD,2023-04-30 12:41:22,15.08840092,5.63e-05,53.2155,301.4785,112.3908,247.7143,6.0211e-05,6.71e-06,0.0,0 STARLINK-4765,1 53937U 22119BD  23120.52873030  .00000671  00000-0  60211-4 0  9996,2 53937  53.2155 301.4785 0000563 112.3908 247.7143 15.08840092 34053,6917.88,95.438,540.135,539.356,0.0
53937.0,STARLINK-4765,PAYLOAD,2023-05-01 10:56:46,15.08838381,8.51e-05,53.2164,297.3154,124.6297,235.4776,8.2007e-05,1.018e-05,0.0,0 STARLINK-4765,1 53937U 22119BD  23121.45609068  .00001018  00000-0  82007-4 0  9990,2 53937  53.2164 297.3154 0000851 124.6297 235.4776 15.08838381 34619,6917.885,95.438,540.339,539.162,0.0
53937.0,STARLINK-4765,PAYLOAD,2023-05-01 17:18:18,15.08838068,8.58e-05,53.2167,296.1258,125.3821,234.7252,8.4459e-06,-1.53e-06,0.0,0 STARLINK-4765,1 53937U 22119BD  23121.72105173 -.00000153  00000-0  84459-5 0  9992,2 53937  53.2167 296.1258 0000858 125.3821 234.7252 15.08838068 34233,6917.886,95.438,540.345,539.158,0.0
53937.0,STARLINK-4765,PAYLOAD,2023-05-01 20:29:05,15.08839331,8.27e-05,53.2162,295.5306,124.7185,235.3885,6.0507e-05,6.75e-06,0.0,0 STARLINK-4765,1 53937U 22119BD  23121.85353167  .00000675  00000-0  60507-4 0  9999,2 53937  53.2162 295.5306 0000827 124.7185 235.3885 15.08839331 34678,6917.882,95.438,540.32,539.175,0.0
53937.0,STARLINK-4765,PAYLOAD,2023-05-02 20:19:51,15.08851923,6.77e-05,53.2149,291.069,127.4987,232.6066,0.00032895,4.953e-05,0.0,0 STARLINK-4765,1 53937U 22119BD  23122.84712699  .00004953  00000-0  32895-3 0  9999,2 53937  53.2149 291.0690 0000677 127.4987 232.6066 15.08851923 34822,6917.844,95.437,540.177,539.241,0.0
53937.0,STARLINK-4765,PAYLOAD,2023-05-03 10:38:20,15.08838542,7.9e-05,53.2152,288.3928,137.3534,222.752,8.2983e-05,1.033e-05,0.0,0 STARLINK-4765,1 53937U 22119BD  23123.44329273  .00001033  00000-0  82983-4 0  9998,2 53937  53.2152 288.3928 0000790 137.3534 222.7520 15.08838542 34493,6917.885,95.438,540.296,539.203,0.0
53937.0,STARLINK-4765,PAYLOAD,2023-05-03 20:10:39,15.08841425,8.3e-05,53.2148,286.6075,154.8667,205.2365,0.00013203,1.814e-05,0.0,0 STARLINK-4765,1 53937U 22119BD  23123.84073172  .00001814  00000-0  13203-3 0  9991,2 53937  53.2148 286.6075 0000830 154.8667 205.2365 15.08841425 34978,6917.876,95.437,540.315,539.167,0.0
53937.0,STARLINK-4765,PAYLOAD,2023-05-04 04:07:35,15.08838383,5.13e-05,53.215,285.1214,92.7463,267.3588,9.5591e-05,1.234e-05,0.0,0 STARLINK-4765,1 53937U 22119BD  23124.17193581  .00001234  00000-0  95591-4 0  9992,2 53937  53.2150 285.1214 0000513  92.7463 267.3588 15.08838383 35024,6917.885,95.438,540.105,539.395,0.0
53937.0,STARLINK-4765,PAYLOAD,2023-05-04 20:01:26,15.08850626,4.97e-05,53.215,282.1476,86.4817,273.6232,0.00043337,6.618e-05,0.0,0 STARLINK-4765,1 53937U 22119BD  23124.83433280  .00006618  00000-0  43337-3 0  9999,2 53937  53.2150 282.1476 0000497  86.4817 273.6232 15.08850626 34709,6917.848,95.437,540.057,539.369,0.0
53937.0,STARLINK-4765,PAYLOAD,2023-05-05 10:19:54,15.08837769,5.47e-05,53.2149,279.4699,119.5001,240.6046,9.1222e-05,1.164e-05,0.0,0 STARLINK-4765,1 53937U 22119BD  23125.43049627  .00001164  00000-0  91222-4 0  9992,2 53937  53.2149 279.4699 0000547 119.5001 240.6046 15.08837769 34791,6917.887,95.438,540.131,539.374,0.0
53937.0,STARLINK-4765,PAYLOAD,2023-05-05 18:16:50,15.0884446,5.62e-05,53.2151,277.9845,92.609,267.4967,0.00018692,2.689e-05,0.0,0 STARLINK-4765,1 53937U 22119BD  23125.76169405  .00002689  00000-0  18692-3 0  9997,2 53937  53.2151 277.9845 0000562  92.6090 267.4967 15.08844460 35264,6917.867,95.437,540.121,539.343,0.0
53937.0,STARLINK-4765,PAYLOAD,2023-05-06 13:21:27,15.08844849,5.47e-05,53.2155,274.4172,77.2529,282.8525,0.00011322,1.515e-05,0.0,0 STARLINK-4765,1 53937U 22119BD  23126.55657401  .00001515  00000-0  11322-3 0  9993,2 53937  53.2155 274.4172 0000547  77.2529 282.8525 15.08844849 35387,6917.866,95.437,540.109,539.352,0.0
53937.0,STARLINK-4765,PAYLOAD,2023-05-06 19:43:00,15.08854624,5.87e-05,53.2151,273.227,90.7834,269.3225,0.0002029,2.944e-05,0.0,0 STARLINK-4765,1 53937U 22119BD  23126.82152830  .00002944  00000-0  20290-3 0  9990,2 53937  53.2151 273.2270 0000587  90.7834 269.3225 15.08854624 35000,6917.836,95.437,540.107,539.295,0.0
53937.0,STARLINK-4765,PAYLOAD,2023-05-07 13:12:15,15.08839267,7.99e-05,53.2147,269.9559,110.9933,249.1144,5.8874e-05,6.49e-06,0.0,0 STARLINK-4765,1 53937U 22119BD  23127.55017615  .00000649  00000-0  58874-4 0  9992,2 53937  53.2147 269.9559 0000799 110.9933 249.1144 15.08839267 35537,6917.883,95.438,540.3,539.195,0.0
53937.0,STARLINK-4765,PAYLOAD,2023-05-07 16:23:01,15.08841928,4.88e-05,53.2148,269.3618,79.7454,280.3593,0.00010391,1.367e-05,0.0,0 STARLINK-4765,1 53937U 22119BD  23127.68265521  .00001367  00000-0  10391-3 0  9996,2 53937  53.2148 269.3618 0000488  79.7454 280.3593 15.08841928 35131,6917.874,95.437,540.077,539.402,0.0
53937.0,STARLINK-4765,PAYLOAD,2023-05-08 16:13:48,15.08837872,4.49e-05,53.2137,264.9059,74.219,285.8851,2.9415e-05,1.81e-06,0.0,0 STARLINK-4765,1 53937U 22119BD  23128.67625702  .00000181  00000-0  29415-4 0  9998,2 53937  53.2137 264.9059 0000449  74.2190 285.8851 15.08837872 35289,6917.887,95.438,540.063,539.441,0.0
53937.0,STARLINK-4765,PAYLOAD,2023-05-09 14:29:12,15.08839596,9.83e-05,53.2136,260.7428,141.5659,218.5403,0.0001281,1.752e-05,0.0,0 STARLINK-4765,1 53937U 22119BD  23129.60361799  .00001752  00000-0  12810-3 0  9990,2 53937  53.2136 260.7428 0000983 141.5659 218.5403 15.08839596 35846,6917.882,95.438,540.427,539.067,0.0
53937.0,STARLINK-4765,PAYLOAD,2023-05-10 12:44:36,15.08835668,6.11e-05,53.2142,256.5785,116.136,243.9695,8.3022e-05,1.034e-05,0.0,0 STARLINK-4765,1 53937U 22119BD  23130.53098241  .00001034  00000-0  83022-4 0  9990,2 53937  53.2142 256.5785 0000611 116.1360 243.9695 15.08835668 35983,6917.894,95.438,540.181,539.336,0.0
53937.0,STARLINK-4765,PAYLOAD,2023-05-10 15:55:22,15.08842605,7.24e-05,53.2158,255.9814,94.7098,265.3977,9.0472e-05,1.153e-05,0.0,0 STARLINK-4765,1 53937U 22119BD  23130.66345899  .00001153  00000-0  90472-4 0  9997,2 53937  53.2158 255.9814 0000724  94.7098 265.3977 15.08842605 36004,6917.872,95.437,540.238,539.237,0.0
53937.0,STARLINK-4765,PAYLOAD,2023-05-11 01:27:41,15.08845717,7.59e-05,53.2163,254.1954,86.6221,273.4858,8.154e-05,1.01e-05,0.0,0 STARLINK-4765,1 53937U 22119BD  23131.06089676  .00001010  00000-0  81540-4 0  9998,2 53937  53.2163 254.1954 0000759  86.6221 273.4858 15.08845717 36063,6917.863,95.437,540.253,539.203,0.0
53937.0,STARLINK-4765,PAYLOAD,2023-05-11 15:46:09,15.08847995,7.58e-05,53.2159,251.5202,89.4417,270.6662,0.00011512,1.545e-05,0.0,0 STARLINK-4765,1 53937U 22119BD  23131.65705686  .00001545  00000-0  11512-3 0  9993,2 53937  53.2159 251.5202 0000758  89.4417 270.6662 15.08847995 35737,6917.856,95.437,540.245,539.197,0.0
53937.0,STARLINK-4765,PAYLOAD,2023-05-12 01:18:28,15.08840668,8.29e-05,53.2173,249.7367,72.5765,287.5318,8.5131e-05,1.067e-05,0.0,0 STARLINK-4765,1 53937U 22119BD  23132.05450087  .00001067  00000-0  85131-4 0  9998,2 53937  53.2173 249.7367 0000829  72.5765 287.5318 15.08840668 35793,6917.878,95.438,540.317,539.17,0.0
